[{"OBJECT_NAME":"STARLINK-32852","OBJECT_ID":"2025-018U","EPOCH":"2026-03-09T22:16:17.103072","MEAN_MOTION":15.30211457,"ECCENTRICITY":8.832e-5,"INCLINATION":53.1606,"RA_OF_ASC_NODE":308.5756,"ARG_OF_PERICENTER":128.8983,"MEAN_ANOMALY":231.2097,"EPHEMERIS_TYPE":0,"CLASSIFICATION_TYPE":"U","NORAD_CAT_ID":62824,"ELEMENT_SET_NO":999,"REV_AT_EPOCH":6321,"BSTAR":0.00095850687,"MEAN_MOTION_DOT":0.00028147,"MEAN_MOTION_DDOT":0},{"OBJECT_NAME":"SL-12 R\/B(AUX MOTOR)","OBJECT_ID":"2005-050E","EPOCH":"2026-03-08T07:26:00.239136","MEAN_MOTION":4.2433482,"ECCENTRICITY":0.57510761,"INCLINATION":64.943,"RA_OF_ASC_NODE":98.713,"ARG_OF_PERICENTER":201.1527,"MEAN_ANOMALY":119.6164,"EPHEMERIS_TYPE":0,"CLASSIFICATION_TYPE":"U","NORAD_CAT_ID":28919,"ELEMENT_SET_NO":999,"REV_AT_EPOCH":31206,"BSTAR":0.00050180171,"MEAN_MOTION_DOT":2.02e-6,"MEAN_MOTION_DDOT":0}]
